{
  "type": "FeatureCollection",
  "name": "koraput_blocks_boundary_placeholder",
  "isTemporaryBoundaryPlaceholder": true,
  "disclaimer": "TEMPORARY BOUNDARY PLACEHOLDER: Geometric polygon representation for the 14 Koraput administrative blocks. Replace with official Survey of India / ORSAC boundary GeoJSON in /data/geo/koraput-blocks.geojson",
  "crs": {
    "type": "name",
    "properties": {
      "name": "urn:ogc:def:crs:OGC:1.3:CRS84"
    }
  },
  "features": [
    {
      "type": "Feature",
      "id": "koraput",
      "properties": {
        "blockId": "koraput",
        "blockName": "Koraput",
        "headquarters": "Koraput Town",
        "elevationMeters": 870,
        "totalAreaSqKm": 562.4,
        "agroEcologicalZone": "Eastern Ghat High Altitude Zone",
        "onsetProbability": 76,
        "breakProbability": 22,
        "heavyRainProbability": 44,
        "rainfallAnomalyPercent": 24.5,
        "observedRainfallMm": 64.2,
        "normalRainfallMm": 51.5,
        "expectedRainfall7dMm": 112.5,
        "riskLevel": "watch",
        "primaryHazard": "Convective Shear & Highland Runoff",
        "agriculturalAdvisory": "Prepare raised nursery beds (10-15cm) for Mandia. Clear terraced drainage channels.",
        "sowingStatus": "Optimal Nursery Window",
        "soilMoistureProfile": "68% Available Rootzone Water",
        "panchayatsCount": 18,
        "telemetryStationCount": 2,
        "lastUpdated": "2026-06-03T06:00:00+05:30",
        "modelVersion": "NCUM-IMD-v1.4",
        "isBoundaryPlaceholder": true
      },
      "geometry": {
        "type": "Polygon",
        "coordinates": [
          [
            [82.65, 18.88],
            [82.78, 18.89],
            [82.82, 18.82],
            [82.78, 18.75],
            [82.68, 18.74],
            [82.63, 18.80],
            [82.65, 18.88]
          ]
        ]
      }
    },
    {
      "type": "Feature",
      "id": "jeypore",
      "properties": {
        "blockId": "jeypore",
        "blockName": "Jeypore",
        "headquarters": "Jeypore",
        "elevationMeters": 659,
        "totalAreaSqKm": 614.8,
        "agroEcologicalZone": "Jeypore Valley / Central Lowland Plateau",
        "onsetProbability": 78,
        "breakProbability": 18,
        "heavyRainProbability": 38,
        "rainfallAnomalyPercent": 18.2,
        "observedRainfallMm": 58.0,
        "normalRainfallMm": 49.0,
        "expectedRainfall7dMm": 88.0,
        "riskLevel": "nominal",
        "primaryHazard": "Valley Lowland Siltation",
        "agriculturalAdvisory": "Favorable condition for medium-duration paddy nursery germination. Maintain bunds.",
        "sowingStatus": "Favorable",
        "soilMoistureProfile": "74% Saturated Lowland Loam",
        "panchayatsCount": 22,
        "telemetryStationCount": 2,
        "lastUpdated": "2026-06-03T06:00:00+05:30",
        "modelVersion": "NCUM-IMD-v1.4",
        "isBoundaryPlaceholder": true
      },
      "geometry": {
        "type": "Polygon",
        "coordinates": [
          [
            [82.48, 18.92],
            [82.63, 18.91],
            [82.65, 18.81],
            [82.60, 18.76],
            [82.49, 18.78],
            [82.45, 18.86],
            [82.48, 18.92]
          ]
        ]
      }
    },
    {
      "type": "Feature",
      "id": "semiliguda",
      "properties": {
        "blockId": "semiliguda",
        "blockName": "Semiliguda",
        "headquarters": "Semiliguda",
        "elevationMeters": 910,
        "totalAreaSqKm": 489.1,
        "agroEcologicalZone": "Highland Undulating Plateau",
        "onsetProbability": 74,
        "breakProbability": 28,
        "heavyRainProbability": 52,
        "rainfallAnomalyPercent": 32.0,
        "observedRainfallMm": 78.4,
        "normalRainfallMm": 59.4,
        "expectedRainfall7dMm": 128.4,
        "riskLevel": "alert",
        "primaryHazard": "False Onset Trap on Plateaus",
        "agriculturalAdvisory": "Withhold dry broadcasting on plateau ridges. Await 2 days sustained rain.",
        "sowingStatus": "Caution - Await Deep Moisture",
        "soilMoistureProfile": "58% Variable Shallow Moisture",
        "panchayatsCount": 16,
        "telemetryStationCount": 2,
        "lastUpdated": "2026-06-03T06:00:00+05:30",
        "modelVersion": "NCUM-IMD-v1.4",
        "isBoundaryPlaceholder": true
      },
      "geometry": {
        "type": "Polygon",
        "coordinates": [
          [
            [82.78, 18.77],
            [82.94, 18.79],
            [82.97, 18.66],
            [82.88, 18.62],
            [82.78, 18.65],
            [82.75, 18.72],
            [82.78, 18.77]
          ]
        ]
      }
    },
    {
      "type": "Feature",
      "id": "pottangi",
      "properties": {
        "blockId": "pottangi",
        "blockName": "Pottangi",
        "headquarters": "Pottangi",
        "elevationMeters": 960,
        "totalAreaSqKm": 541.2,
        "agroEcologicalZone": "Deomali Foothills / High Rain Valley",
        "onsetProbability": 79,
        "breakProbability": 20,
        "heavyRainProbability": 68,
        "rainfallAnomalyPercent": 46.5,
        "observedRainfallMm": 94.6,
        "normalRainfallMm": 64.5,
        "expectedRainfall7dMm": 142.0,
        "riskLevel": "alert",
        "primaryHazard": "Cloudburst & Slope Runoff (>64.5mm)",
        "agriculturalAdvisory": "Construct contour trenches on steep maize slopes. Prevent soil slippage.",
        "sowingStatus": "Caution - High Runoff Risk",
        "soilMoistureProfile": "82% High Moisture Saturation",
        "panchayatsCount": 14,
        "telemetryStationCount": 1,
        "lastUpdated": "2026-06-03T06:00:00+05:30",
        "modelVersion": "NCUM-IMD-v1.4",
        "isBoundaryPlaceholder": true
      },
      "geometry": {
        "type": "Polygon",
        "coordinates": [
          [
            [82.88, 18.64],
            [83.08, 18.68],
            [83.12, 18.52],
            [82.95, 18.48],
            [82.85, 18.54],
            [82.88, 18.64]
          ]
        ]
      }
    },
    {
      "type": "Feature",
      "id": "nandapur",
      "properties": {
        "blockId": "nandapur",
        "blockName": "Nandapur",
        "headquarters": "Nandapur",
        "elevationMeters": 920,
        "totalAreaSqKm": 512.6,
        "agroEcologicalZone": "Jalaput Catchment Zone",
        "onsetProbability": 75,
        "breakProbability": 24,
        "heavyRainProbability": 46,
        "rainfallAnomalyPercent": 21.0,
        "observedRainfallMm": 62.0,
        "normalRainfallMm": 51.2,
        "expectedRainfall7dMm": 104.5,
        "riskLevel": "watch",
        "primaryHazard": "Catchment Soil Washout",
        "agriculturalAdvisory": "Plant fast-rooting grass strips along field borders. Prepare Mandia beds.",
        "sowingStatus": "Optimal",
        "soilMoistureProfile": "66% Moisture Capacity",
        "panchayatsCount": 15,
        "telemetryStationCount": 1,
        "lastUpdated": "2026-06-03T06:00:00+05:30",
        "modelVersion": "NCUM-IMD-v1.4",
        "isBoundaryPlaceholder": true
      },
      "geometry": {
        "type": "Polygon",
        "coordinates": [
          [
            [82.66, 18.66],
            [82.84, 18.65],
            [82.84, 18.51],
            [82.72, 18.49],
            [82.63, 18.56],
            [82.66, 18.66]
          ]
        ]
      }
    },
    {
      "type": "Feature",
      "id": "lamtaput",
      "properties": {
        "blockId": "lamtaput",
        "blockName": "Lamtaput",
        "headquarters": "Lamtaput",
        "elevationMeters": 840,
        "totalAreaSqKm": 478.3,
        "agroEcologicalZone": "Machkund Basin Highland",
        "onsetProbability": 77,
        "breakProbability": 19,
        "heavyRainProbability": 40,
        "rainfallAnomalyPercent": 19.5,
        "observedRainfallMm": 59.8,
        "normalRainfallMm": 50.0,
        "expectedRainfall7dMm": 96.0,
        "riskLevel": "watch",
        "primaryHazard": "Machkund Basin Drainage Influx",
        "agriculturalAdvisory": "Open secondary water diversion furrows. Seed procurement for upland ragi.",
        "sowingStatus": "Favorable",
        "soilMoistureProfile": "70% Loamy Moisture",
        "panchayatsCount": 14,
        "telemetryStationCount": 1,
        "lastUpdated": "2026-06-03T06:00:00+05:30",
        "modelVersion": "NCUM-IMD-v1.4",
        "isBoundaryPlaceholder": true
      },
      "geometry": {
        "type": "Polygon",
        "coordinates": [
          [
            [82.48, 18.76],
            [82.66, 18.75],
            [82.65, 18.62],
            [82.52, 18.60],
            [82.44, 18.68],
            [82.48, 18.76]
          ]
        ]
      }
    },
    {
      "type": "Feature",
      "id": "dasamantapur",
      "properties": {
        "blockId": "dasamantapur",
        "blockName": "Dasamantapur",
        "headquarters": "Dasamantapur",
        "elevationMeters": 780,
        "totalAreaSqKm": 698.0,
        "agroEcologicalZone": "Northern Hilly Forest Tract",
        "onsetProbability": 73,
        "breakProbability": 26,
        "heavyRainProbability": 36,
        "rainfallAnomalyPercent": 14.2,
        "observedRainfallMm": 52.0,
        "normalRainfallMm": 45.5,
        "expectedRainfall7dMm": 91.5,
        "riskLevel": "alert",
        "primaryHazard": "Rapid Surface Desiccation Post-Shower",
        "agriculturalAdvisory": "Conserve in-situ moisture using crop residue mulch in fruit orchards and maize.",
        "sowingStatus": "Caution - Await Deep Moisture",
        "soilMoistureProfile": "54% Shallow Water Depth",
        "panchayatsCount": 16,
        "telemetryStationCount": 1,
        "lastUpdated": "2026-06-03T06:00:00+05:30",
        "modelVersion": "NCUM-IMD-v1.4",
        "isBoundaryPlaceholder": true
      },
      "geometry": {
        "type": "Polygon",
        "coordinates": [
          [
            [82.72, 19.16],
            [82.98, 19.18],
            [83.02, 19.02],
            [82.84, 18.94],
            [82.70, 19.00],
            [82.72, 19.16]
          ]
        ]
      }
    },
    {
      "type": "Feature",
      "id": "laxmipur",
      "properties": {
        "blockId": "laxmipur",
        "blockName": "Laxmipur",
        "headquarters": "Laxmipur",
        "elevationMeters": 850,
        "totalAreaSqKm": 588.4,
        "agroEcologicalZone": "Eastern Mountain Corridor",
        "onsetProbability": 76,
        "breakProbability": 21,
        "heavyRainProbability": 45,
        "rainfallAnomalyPercent": 22.8,
        "observedRainfallMm": 64.0,
        "normalRainfallMm": 52.1,
        "expectedRainfall7dMm": 105.0,
        "riskLevel": "watch",
        "primaryHazard": "Eastern Corridor Thunderstorms",
        "agriculturalAdvisory": "Prepare seedbed drainage. Apply bio-fertilizers before predicted rain surge.",
        "sowingStatus": "Optimal",
        "soilMoistureProfile": "69% Balanced Soil Water",
        "panchayatsCount": 15,
        "telemetryStationCount": 1,
        "lastUpdated": "2026-06-03T06:00:00+05:30",
        "modelVersion": "NCUM-IMD-v1.4",
        "isBoundaryPlaceholder": true
      },
      "geometry": {
        "type": "Polygon",
        "coordinates": [
          [
            [82.99, 19.12],
            [83.22, 19.14],
            [83.25, 18.96],
            [83.06, 18.92],
            [82.96, 19.02],
            [82.99, 19.12]
          ]
        ]
      }
    },
    {
      "type": "Feature",
      "id": "narayanpatna",
      "properties": {
        "blockId": "narayanpatna",
        "blockName": "Narayanpatna",
        "headquarters": "Narayanpatna",
        "elevationMeters": 420,
        "totalAreaSqKm": 520.1,
        "agroEcologicalZone": "Jhanjavati Lowland Escarpment",
        "onsetProbability": 81,
        "breakProbability": 15,
        "heavyRainProbability": 32,
        "rainfallAnomalyPercent": 16.0,
        "observedRainfallMm": 48.5,
        "normalRainfallMm": 41.8,
        "expectedRainfall7dMm": 79.0,
        "riskLevel": "nominal",
        "primaryHazard": "Valley Thermal Stress Prior to Onset",
        "agriculturalAdvisory": "Ensure nursery shading if day temperatures exceed 36°C prior to onset.",
        "sowingStatus": "Favorable",
        "soilMoistureProfile": "62% Valley Soil Water",
        "panchayatsCount": 12,
        "telemetryStationCount": 1,
        "lastUpdated": "2026-06-03T06:00:00+05:30",
        "modelVersion": "NCUM-IMD-v1.4",
        "isBoundaryPlaceholder": true
      },
      "geometry": {
        "type": "Polygon",
        "coordinates": [
          [
            [83.08, 18.98],
            [83.30, 18.99],
            [83.34, 18.82],
            [83.15, 18.80],
            [83.05, 18.89],
            [83.08, 18.98]
          ]
        ]
      }
    },
    {
      "type": "Feature",
      "id": "bandhugaon",
      "properties": {
        "blockId": "bandhugaon",
        "blockName": "Bandhugaon",
        "headquarters": "Bandhugaon",
        "elevationMeters": 380,
        "totalAreaSqKm": 495.7,
        "agroEcologicalZone": "Inter-State Border Escarpment",
        "onsetProbability": 82,
        "breakProbability": 14,
        "heavyRainProbability": 30,
        "rainfallAnomalyPercent": 15.5,
        "observedRainfallMm": 46.0,
        "normalRainfallMm": 39.8,
        "expectedRainfall7dMm": 82.5,
        "riskLevel": "nominal",
        "primaryHazard": "Localized Squall Lines",
        "agriculturalAdvisory": "Begin field preparation for short-duration pulses and oilseeds (Niger).",
        "sowingStatus": "Favorable",
        "soilMoistureProfile": "60% Light Sandy Loam",
        "panchayatsCount": 11,
        "telemetryStationCount": 1,
        "lastUpdated": "2026-06-03T06:00:00+05:30",
        "modelVersion": "NCUM-IMD-v1.4",
        "isBoundaryPlaceholder": true
      },
      "geometry": {
        "type": "Polygon",
        "coordinates": [
          [
            [83.24, 19.06],
            [83.42, 19.08],
            [83.44, 18.90],
            [83.28, 18.88],
            [83.24, 19.06]
          ]
        ]
      }
    },
    {
      "type": "Feature",
      "id": "borigumma",
      "properties": {
        "blockId": "borigumma",
        "blockName": "Borigumma",
        "headquarters": "Borigumma",
        "elevationMeters": 580,
        "totalAreaSqKm": 742.3,
        "agroEcologicalZone": "North-Western Agricultural Plain",
        "onsetProbability": 77,
        "breakProbability": 17,
        "heavyRainProbability": 35,
        "rainfallAnomalyPercent": 19.0,
        "observedRainfallMm": 55.4,
        "normalRainfallMm": 46.5,
        "expectedRainfall7dMm": 86.0,
        "riskLevel": "nominal",
        "primaryHazard": "Transient Pest Influx with High Humidity",
        "agriculturalAdvisory": "Seed treatment with Trichoderma viride before paddy nursery raising.",
        "sowingStatus": "Optimal",
        "soilMoistureProfile": "72% Deep Plains Alluvium",
        "panchayatsCount": 26,
        "telemetryStationCount": 2,
        "lastUpdated": "2026-06-03T06:00:00+05:30",
        "modelVersion": "NCUM-IMD-v1.4",
        "isBoundaryPlaceholder": true
      },
      "geometry": {
        "type": "Polygon",
        "coordinates": [
          [
            [82.44, 19.14],
            [82.68, 19.13],
            [82.66, 18.98],
            [82.46, 18.96],
            [82.40, 19.05],
            [82.44, 19.14]
          ]
        ]
      }
    },
    {
      "type": "Feature",
      "id": "kotpad",
      "properties": {
        "blockId": "kotpad",
        "blockName": "Kotpad",
        "headquarters": "Kotpad",
        "elevationMeters": 560,
        "totalAreaSqKm": 630.5,
        "agroEcologicalZone": "Sabari-Kolab River Alluvial Plain",
        "onsetProbability": 79,
        "breakProbability": 16,
        "heavyRainProbability": 34,
        "rainfallAnomalyPercent": 18.0,
        "observedRainfallMm": 54.0,
        "normalRainfallMm": 45.8,
        "expectedRainfall7dMm": 84.5,
        "riskLevel": "nominal",
        "primaryHazard": "River Fringe Water Level Rise",
        "agriculturalAdvisory": "Complete plowing in Kolab alluvial tracts. Prepare nursery beds.",
        "sowingStatus": "Optimal",
        "soilMoistureProfile": "75% High Infiltration Loam",
        "panchayatsCount": 20,
        "telemetryStationCount": 1,
        "lastUpdated": "2026-06-03T06:00:00+05:30",
        "modelVersion": "NCUM-IMD-v1.4",
        "isBoundaryPlaceholder": true
      },
      "geometry": {
        "type": "Polygon",
        "coordinates": [
          [
            [82.20, 19.24],
            [82.44, 19.22],
            [82.42, 19.06],
            [82.22, 19.08],
            [82.20, 19.24]
          ]
        ]
      }
    },
    {
      "type": "Feature",
      "id": "kundura",
      "properties": {
        "blockId": "kundura",
        "blockName": "Kundura",
        "headquarters": "Kundura",
        "elevationMeters": 610,
        "totalAreaSqKm": 482.9,
        "agroEcologicalZone": "Western Undulating Forest Fringe",
        "onsetProbability": 75,
        "breakProbability": 23,
        "heavyRainProbability": 37,
        "rainfallAnomalyPercent": 17.5,
        "observedRainfallMm": 53.0,
        "normalRainfallMm": 45.1,
        "expectedRainfall7dMm": 89.0,
        "riskLevel": "watch",
        "primaryHazard": "Forest Fringe Soil Crusting",
        "agriculturalAdvisory": "Incorporate farmyard manure (FYM) to improve moisture retention on light soils.",
        "sowingStatus": "Favorable",
        "soilMoistureProfile": "64% Sandy Clay Moisture",
        "panchayatsCount": 14,
        "telemetryStationCount": 1,
        "lastUpdated": "2026-06-03T06:00:00+05:30",
        "modelVersion": "NCUM-IMD-v1.4",
        "isBoundaryPlaceholder": true
      },
      "geometry": {
        "type": "Polygon",
        "coordinates": [
          [
            [82.25, 19.04],
            [82.45, 19.02],
            [82.46, 18.84],
            [82.28, 18.85],
            [82.25, 19.04]
          ]
        ]
      }
    },
    {
      "type": "Feature",
      "id": "boipariguda",
      "properties": {
        "blockId": "boipariguda",
        "blockName": "Boipariguda",
        "headquarters": "Boipariguda",
        "elevationMeters": 620,
        "totalAreaSqKm": 673.8,
        "agroEcologicalZone": "Gupteswar Forest & Karst Basin",
        "onsetProbability": 76,
        "breakProbability": 22,
        "heavyRainProbability": 39,
        "rainfallAnomalyPercent": 20.2,
        "observedRainfallMm": 58.0,
        "normalRainfallMm": 48.2,
        "expectedRainfall7dMm": 94.0,
        "riskLevel": "watch",
        "primaryHazard": "Karst Drainage Infiltration Delays",
        "agriculturalAdvisory": "Maintain bund integrity around Gupteswar valley plots to avoid flash washout.",
        "sowingStatus": "Favorable",
        "soilMoistureProfile": "67% Karst Valley Loam",
        "panchayatsCount": 17,
        "telemetryStationCount": 1,
        "lastUpdated": "2026-06-03T06:00:00+05:30",
        "modelVersion": "NCUM-IMD-v1.4",
        "isBoundaryPlaceholder": true
      },
      "geometry": {
        "type": "Polygon",
        "coordinates": [
          [
            [82.32, 18.86],
            [82.50, 18.85],
            [82.50, 18.68],
            [82.34, 18.66],
            [82.32, 18.86]
          ]
        ]
      }
    }
  ]
}
